OBJECT_NAME,OBJECT_ID,EPOCH,MEAN_MOTION,ECCENTRICITY,INCLINATION,RA_OF_ASC_NODE,ARG_OF_PERICENTER,MEAN_ANOMALY,EPHEMERIS_TYPE,CLASSIFICATION_TYPE,NORAD_CAT_ID,ELEMENT_SET_NO,REV_AT_EPOCH,BSTAR,MEAN_MOTION_DOT,MEAN_MOTION_DDOT
FENGYUN 1C DEB,1999-025YM,2026-03-21T11:46:31.501632,14.27729881,.00266732,98.8473,158.3183,159.4665,200.7594,0,U,30276,999,98939,.12635099E-2,.3085E-4,0
FENGYUN 1C DEB,1999-025YN,2026-03-21T03:53:09.144960,14.14049934,.01212491,98.9600,156.1468,258.6657,166.9935,0,U,30277,999,98180,.81026991E-3,.1607E-4,0
FENGYUN 1C DEB,1999-025YQ,2026-03-21T14:41:23.496864,14.23575440,.02179093,99.1596,24.3626,149.6180,28.5427,0,U,30279,999,99017,.42529554E-3,.1186E-4,0
FENGYUN 1C DEB,1999-025YR,2026-03-21T11:35:00.858048,13.98406221,.0081609,98.7850,70.6509,55.8984,65.3222,0,U,30280,999,97786,.39104497E-3,.534E-5,0
FENGYUN 1C DEB,1999-025YS,2026-03-21T13:58:39.269280,14.10566311,.00280819,98.7673,72.8890,319.9969,164.1607,0,U,30281,999,98614,.20711564E-3,.327E-5,0
FENGYUN 1C DEB,1999-025YT,2026-03-21T11:02:47.808384,14.13111088,.02111298,98.5056,83.8711,78.7586,74.7137,0,U,30282,999,98745,.2552064E-3,.549E-5,0
FENGYUN 1C DEB,1999-025YU,2026-03-21T12:43:52.296960,14.02020336,.01838359,98.8725,76.5997,127.6716,352.9822,0,U,30283,999,98075,.33514608E-4,.18E-6,0
FENGYUN 1C DEB,1999-025YV,2026-03-20T03:43:24.096864,14.29533145,.00391934,98.7089,152.5800,180.8150,209.2155,0,U,30284,999,98907,.11601006E-2,.2946E-4,0
FENGYUN 1C DEB,1999-025YX,2026-03-21T13:47:51.579456,14.12767473,.0063344,98.6927,87.0241,211.0039,279.1540,0,U,30286,999,98854,.67326048E-4,.85E-6,0
FENGYUN 1C DEB,1999-025YY,2026-03-21T13:33:59.898240,13.68926375,.04140601,98.6252,109.7558,109.4464,38.8573,0,U,30287,999,95210,.92022807E-3,.1416E-4,0
FENGYUN 1C DEB,1999-025YZ,2026-03-21T05:48:01.344672,14.33733997,.00210034,99.3872,175.1520,48.9279,5.6329,0,U,30288,999,98980,.15208797E-2,.4185E-4,0
FENGYUN 1C DEB,1999-025ZA,2026-03-21T13:19:03.416160,14.27027111,.00362465,98.9215,183.9288,51.5047,70.3809,0,U,30289,999,98490,.21523849E-2,.5233E-4,0
FENGYUN 1C DEB,1999-025ZB,2026-03-20T09:52:28.111008,14.84694418,.00172259,102.6181,241.2297,169.7851,246.5378,0,U,30290,999,99323,.34545146E-2,.29357E-3,0
FENGYUN 1C DEB,1999-025ZC,2026-03-21T14:09:00.764352,14.57913590,.01074345,97.2267,321.3646,64.1206,0.7383,0,U,30291,999,99147,.31021146E-2,.1539E-3,0
FENGYUN 1C DEB,1999-025ZE,2026-03-20T08:08:00.955680,14.49609524,.007548,99.2540,284.6953,184.2964,354.9397,0,U,30293,999,389,.58052E-3,.2256E-4,0
FENGYUN 1C DEB,1999-025ZF,2026-03-20T11:30:26.328960,14.35190563,.01982183,98.3668,69.7203,18.0680,135.6869,0,U,30294,999,99938,.36625285E-3,.1259E-4,0
FENGYUN 1C DEB,1999-025ZG,2026-03-20T19:52:15.712032,14.25140107,.00938704,98.5002,104.2755,155.0094,24.5390,0,U,30295,999,99573,.12571768E-3,.267E-5,0
FENGYUN 1C DEB,1999-025ZJ,2026-03-20T20:52:45.503904,14.24508490,.03681278,98.8216,36.8286,191.4515,193.4469,0,U,30297,999,96548,.11384611E-2,.5319E-4,0
FENGYUN 1C DEB,1999-025ZK,2026-03-21T13:01:12.030240,14.20807323,.00493017,98.9946,178.1945,201.3403,174.5782,0,U,30298,999,98237,.21040008E-2,.4557E-4,0
FENGYUN 1C DEB,1999-025ZL,2026-03-20T16:25:55.482816,14.08345911,.01054937,99.0828,157.6067,95.4329,56.6199,0,U,30299,999,97668,.12841076E-2,.2269E-4,0
FENGYUN 1C DEB,1999-025ZM,2026-03-21T04:36:54.872064,14.28072379,.00710557,99.0309,157.8556,13.0543,42.2985,0,U,30300,999,98389,.17810512E-2,.4501E-4,0
FENGYUN 1C DEB,1999-025ZN,2026-03-21T09:47:45.411936,14.57492287,.0059839,98.6351,239.8395,347.2187,66.7083,0,U,30301,999,98652,.48459967E-2,.22584E-3,0
FENGYUN 1C DEB,1999-025ZP,2026-03-21T11:24:10.229760,14.13947106,.01001294,98.5526,348.8744,195.9374,163.8643,0,U,30302,999,97438,.26513158E-2,.5241E-4,0
FENGYUN 1C DEB,1999-025ZQ,2026-03-18T16:23:29.897952,14.27103205,.00720239,99.0103,162.8267,8.3473,351.8887,0,U,30303,999,98403,.14652136E-2,.3626E-4,0
FENGYUN 1C DEB,1999-025ZR,2026-03-20T15:37:47.189568,14.16037364,.00758298,99.0208,158.3554,131.5059,229.2655,0,U,30304,999,98204,.10941477E-2,.2176E-4,0
FENGYUN 1C DEB,1999-025ZS,2026-03-21T11:26:48.218208,13.60288677,.02642219,98.5964,13.5912,202.4897,222.5942,0,U,30305,999,95116,.17275238E-3,.126E-5,0
FENGYUN 1C DEB,1999-025ZT,2026-03-21T13:34:01.475904,14.28774289,.01137899,98.5755,125.0422,68.4599,292.8667,0,U,30306,999,99092,.1098115E-2,.2923E-4,0
FENGYUN 1C DEB,1999-025ZW,2026-03-20T02:37:46.763328,13.93599007,.00920031,99.2084,140.9609,287.8509,71.2633,0,U,30309,999,97389,.2359375E-3,.275E-5,0
FENGYUN 1C DEB,1999-025ZX,2026-03-21T12:09:49.807008,14.08691799,.0241508,98.6583,101.3584,77.4930,285.3142,0,U,30310,999,98122,.59480754E-3,.1299E-4,0
FENGYUN 1C DEB,1999-025ZY,2026-03-21T04:31:56.609760,13.77975363,.016358,99.1318,177.2078,296.0648,62.3745,0,U,30311,999,96316,.33673472E-3,.329E-5,0
FENGYUN 1C DEB,1999-025ZZ,2026-03-21T04:49:58.171872,14.47727067,.00094346,98.8563,169.0021,262.8936,158.6599,0,U,30312,999,99344,.20929733E-2,.7692E-4,0
FENGYUN 1C DEB,1999-025AAA,2026-03-21T12:03:52.080768,14.26432493,.00564471,98.8663,172.8885,53.4805,11.2887,0,U,30313,999,98497,.18903024E-2,.4583E-4,0
FENGYUN 1C DEB,1999-025AAB,2026-03-21T11:59:36.126816,14.01675743,.01422847,98.3933,268.4716,79.1023,282.6118,0,U,30314,999,97492,.84315326E-3,.1359E-4,0
FENGYUN 1C DEB,1999-025AAC,2026-03-21T14:22:02.729280,14.19222048,.00363473,98.6017,92.2152,73.9258,47.6764,0,U,30315,999,99109,.30070372E-3,.592E-5,0
FENGYUN 1C DEB,1999-025AAD,2026-03-20T23:23:20.087520,14.58437459,.00362392,98.6455,191.1201,100.4735,260.0550,0,U,30316,999,99767,.18805256E-2,.8759E-4,0
FENGYUN 1C DEB,1999-025AAE,2026-03-21T13:50:56.408928,14.07002242,.00250988,98.7913,83.2760,1.0291,359.0925,0,U,30317,999,98403,.21793689E-3,.322E-5,0
FENGYUN 1C DEB,1999-025AAH,2026-03-21T10:34:59.326752,13.98619182,.00855987,99.1694,144.8420,24.8786,352.9932,0,U,30320,999,97787,.52475246E-4,.33E-6,0
FENGYUN 1C DEB,1999-025AAJ,2026-03-21T12:46:42.733920,14.16786183,.00598337,98.6617,81.9249,314.5549,168.3355,0,U,30321,999,98942,.29635412E-3,.56E-5,0
FENGYUN 1C DEB,1999-025AAK,2026-03-21T12:36:06.262272,14.06494463,.01272847,98.3954,296.1512,332.4344,27.0114,0,U,30322,999,97588,.10153619E-2,.1767E-4,0
FENGYUN 1C DEB,1999-025AAL,2026-03-21T12:49:46.587072,14.09142646,.00157395,98.7270,101.8195,338.7259,21.3256,0,U,30325,999,98407,.73917659E-4,.86E-6,0
FENGYUN 1C DEB,1999-025AAM,2026-03-21T13:44:18.850560,13.85521077,.01424581,98.6439,325.3357,120.6406,240.8886,0,U,30326,999,96824,.16670659E-3,.168E-5,0
FENGYUN 1C DEB,1999-025AAN,2026-03-20T15:35:21.086304,14.18898341,.01148,98.4403,334.2766,220.0569,170.0592,0,U,30327,999,97831,.13618E-2,.2988E-4,0
FENGYUN 1C DEB,1999-025AAP,2026-03-21T13:04:09.138144,14.12531979,.00043691,98.6857,92.6510,233.7034,248.4883,0,U,30328,999,98659,.12682808E-3,.192E-5,0
FENGYUN 1C DEB,1999-025AAQ,2026-03-20T17:53:03.722208,13.86848963,.0141696,99.2648,3.1989,132.2691,248.4189,0,U,30329,999,96769,.32865E-3,.372E-5,0
FENGYUN 1C DEB,1999-025AAR,2026-03-21T10:47:10.995648,13.82469263,.01860249,98.8962,72.2695,279.3246,234.4940,0,U,30330,999,96021,.12692465E-2,.1526E-4,0
FENGYUN 1C DEB,1999-025AAS,2026-03-21T14:05:31.048224,13.97978536,.00974364,98.9430,117.7042,95.1359,55.5812,0,U,30331,999,97500,.25173773E-3,.33E-5,0
FENGYUN 1C DEB,1999-025AAT,2026-03-20T21:36:43.386624,13.76835055,.01767829,99.7302,58.5751,207.8477,220.1796,0,U,30332,999,96066,.30709967E-3,.292E-5,0
FENGYUN 1C DEB,1999-025AAV,2026-03-20T17:54:07.711776,13.92884333,.0144902,99.0162,181.7990,76.3724,75.8941,0,U,30334,999,96585,.1472E-2,.2039E-4,0
FENGYUN 1C DEB,1999-025AAW,2026-03-21T12:21:40.086720,14.01401338,.01327052,98.9083,74.4395,216.5396,266.1172,0,U,30335,999,97974,.21561748E-3,.308E-5,0
FENGYUN 1C DEB,1999-025AAX,2026-03-21T13:38:00.205152,14.19468505,.00446673,98.5932,103.6162,82.3836,69.8409,0,U,30336,999,99004,.307737E-3,.612E-5,0
FENGYUN 1C DEB,1999-025AAZ,2026-03-21T10:34:57.688608,14.48678615,.02668688,98.4431,155.3032,253.5368,119.3491,0,U,30338,999,99573,.97441414E-3,.5723E-4,0
FENGYUN 1C DEB,1999-025ABA,2026-03-21T14:28:40.456992,14.39945239,.00255289,98.9705,196.5539,150.3653,225.5693,0,U,30339,999,98849,.2943867E-2,.9261E-4,0
FENGYUN 1C DEB,1999-025ABB,2026-03-21T10:01:26.872032,14.04646897,.01447582,98.9823,141.2503,219.7646,160.7874,0,U,30340,999,98166,-.35562181E-4,-.107E-5,0
FENGYUN 1C DEB,1999-025ABC,2026-03-20T16:24:37.645056,14.35786682,.00485378,99.2175,339.3181,134.1686,259.4731,0,U,30341,999,98486,.16631182E-2,.483E-4,0
FENGYUN 1C DEB,1999-025ABD,2026-03-21T11:55:53.278752,13.80186249,.01676265,100.2008,272.6530,228.7256,159.4216,0,U,30342,999,96251,.5614754E-3,.598E-5,0
FENGYUN 1C DEB,1999-025ABF,2026-03-21T05:29:48.184224,14.53946789,.00102274,98.8116,172.2922,172.5698,242.0139,0,U,30344,999,99507,.23369206E-2,.9809E-4,0
FENGYUN 1C DEB,1999-025ABG,2026-03-21T10:30:43.377984,14.43066662,.00140447,98.9100,149.2441,310.1727,49.8232,0,U,30345,999,99196,.19355568E-2,.6455E-4,0
FENGYUN 1C DEB,1999-025ABH,2026-03-21T04:59:07.135872,14.35249956,.0056355,98.8027,183.7933,96.1876,327.2176,0,U,30346,999,98825,.17152062E-2,.4956E-4,0
FENGYUN 1C DEB,1999-025ABJ,2026-03-21T11:53:22.087392,13.92830211,.0150994,98.3844,260.0962,118.6616,304.8193,0,U,30347,999,97335,.20753097E-3,.258E-5,0
FENGYUN 1C DEB,1999-025ABK,2026-03-21T06:46:04.469088,14.36266386,.00194396,98.8574,182.7220,90.4351,332.8234,0,U,30348,999,98948,.16280362E-2,.4722E-4,0
FENGYUN 1C DEB,1999-025ABL,2026-03-20T20:12:32.471136,14.11854319,.00885941,98.5932,43.0874,91.5651,299.4054,0,U,30349,999,97615,.1628979E-2,.3046E-4,0
FENGYUN 1C DEB,1999-025ABM,2026-03-21T10:30:17.573760,13.83065588,.02187958,98.1033,250.1623,36.8269,16.8672,0,U,30350,999,96346,.56860842E-3,.713E-5,0
FENGYUN 1C DEB,1999-025ABP,2026-03-21T12:31:40.071648,14.07662839,.00291424,98.7571,103.6341,41.5417,113.0575,0,U,30352,999,98300,.27019216E-3,.416E-5,0
